{
  "type": "FeatureCollection",
  "features": [
    {
      "type": "Feature",
      "properties": {
        "norad_id": 35446,
        "name": "COSMOS 2251 DEB",
        "group": "cosmos-2251-debris",
        "lat": -50.8198918636662,
        "lon": 178.5285733500992,
        "alt_km": 753.8963675383811,
        "timestamp": "2025-12-02T06:27:53.407529+00:00",
        "meta_object_name": "COSMOS 2251 DEB",
        "meta_object_id": "1993-036AKQ",
        "meta_epoch": "2025-11-30T07:11:01.736160",
        "meta_mean_motion": 14.5460995,
        "meta_eccentricity": 0.00744354,
        "meta_inclination": 74.0466,
        "meta_ra_of_asc_node": 341.7043,
        "meta_arg_of_pericenter": 103.5149,
        "meta_mean_anomaly": 257.4321,
        "meta_ephemeris_type": 0,
        "meta_classification_type": "U",
        "meta_norad_cat_id": 35446,
        "meta_element_set_no": 999,
        "meta_rev_at_epoch": 87827,
        "meta_bstar": 0.00010353473,
        "meta_mean_motion_dot": 4.29e-06,
        "meta_mean_motion_ddot": 0,
        "tle_line1": "1 35446U 93036AKQ 25334.29932565  .00000429  00000+0  10353-3 0  9990",
        "tle_line2": "2 35446  74.0466 341.7043 0074435 103.5149 257.4321 14.54609950878278"
      },
      "geometry": {
        "type": "Point",
        "coordinates": [
          178.5285733500992,
          -50.8198918636662
        ]
      }
    },
    {
      "type": "Feature",
      "properties": {
        "norad_id": 35448,
        "name": "COSMOS 2251 DEB",
        "group": "cosmos-2251-debris",
        "lat": 66.0172775717667,
        "lon": -111.0132507612432,
        "alt_km": 713.1970785684061,
        "timestamp": "2025-12-02T06:27:53.407539+00:00",
        "meta_object_name": "COSMOS 2251 DEB",
        "meta_object_id": "1993-036AKS",
        "meta_epoch": "2025-11-30T02:46:57.396576",
        "meta_mean_motion": 14.54072836,
        "meta_eccentricity": 0.00108374,
        "meta_inclination": 73.9021,
        "meta_ra_of_asc_node": 113.5661,
        "meta_arg_of_pericenter": 293.2846,
        "meta_mean_anomaly": 66.7175,
        "meta_ephemeris_type": 0,
        "meta_classification_type": "U",
        "meta_norad_cat_id": 35448,
        "meta_element_set_no": 999,
        "meta_rev_at_epoch": 87151,
        "meta_bstar": 0.0011243379,
        "meta_mean_motion_dot": 4.725e-05,
        "meta_mean_motion_ddot": 0,
        "tle_line1": "1 35448U 93036AKS 25334.11594209  .00004725  00000+0  11243-2 0  9993",
        "tle_line2": "2 35448  73.9021 113.5661 0010837 293.2846  66.7175 14.54072836871518"
      },
      "geometry": {
        "type": "Point",
        "coordinates": [
          -111.0132507612432,
          66.0172775717667
        ]
      }
    },
    {
      "type": "Feature",
      "properties": {
        "norad_id": 35451,
        "name": "COSMOS 2251 DEB",
        "group": "cosmos-2251-debris",
        "lat": -25.135624875399273,
        "lon": 117.48748445497168,
        "alt_km": 448.3985045462232,
        "timestamp": "2025-12-02T06:27:53.407550+00:00",
        "meta_object_name": "COSMOS 2251 DEB",
        "meta_object_id": "1993-036AKV",
        "meta_epoch": "2025-12-01T10:13:47.469504",
        "meta_mean_motion": 15.33908779,
        "meta_eccentricity": 0.00396196,
        "meta_inclination": 73.9311,
        "meta_ra_of_asc_node": 127.0764,
        "meta_arg_of_pericenter": 15.9869,
        "meta_mean_anomaly": 344.2575,
        "meta_ephemeris_type": 0,
        "meta_classification_type": "U",
        "meta_norad_cat_id": 35451,
        "meta_element_set_no": 999,
        "meta_rev_at_epoch": 67232,
        "meta_bstar": 0.0018622574,
        "meta_mean_motion_dot": 0.00063135,
        "meta_mean_motion_ddot": 0,
        "tle_line1": "1 35451U 93036AKV 25335.42624386  .00063135  00000+0  18623-2 0  9991",
        "tle_line2": "2 35451  73.9311 127.0764 0039619  15.9869 344.2575 15.33908779672329"
      },
      "geometry": {
        "type": "Point",
        "coordinates": [
          117.48748445497168,
          -25.135624875399273
        ]
      }
    },
    {
      "type": "Feature",
      "properties": {
        "norad_id": 35453,
        "name": "COSMOS 2251 DEB",
        "group": "cosmos-2251-debris",
        "lat": 49.35459392026076,
        "lon": 59.20415173153002,
        "alt_km": 787.5834856310212,
        "timestamp": "2025-12-02T06:27:53.407559+00:00",
        "meta_object_name": "COSMOS 2251 DEB",
        "meta_object_id": "1993-036AKX",
        "meta_epoch": "2025-11-29T13:05:55.541472",
        "meta_mean_motion": 14.37887031,
        "meta_eccentricity": 0.00682488,
        "meta_inclination": 74.0102,
        "meta_ra_of_asc_node": 44.7136,
        "meta_arg_of_pericenter": 181.7658,
        "meta_mean_anomaly": 178.3266,
        "meta_ephemeris_type": 0,
        "meta_classification_type": "U",
        "meta_norad_cat_id": 35453,
        "meta_element_set_no": 999,
        "meta_rev_at_epoch": 86029,
        "meta_bstar": 0.00074250285,
        "meta_mean_motion_dot": 2.276e-05,
        "meta_mean_motion_ddot": 0,
        "tle_line1": "1 35453U 93036AKX 25333.54578173  .00002276  00000+0  74250-3 0  9994",
        "tle_line2": "2 35453  74.0102  44.7136 0068248 181.7658 178.3266 14.37887031860295"
      },
      "geometry": {
        "type": "Point",
        "coordinates": [
          59.20415173153002,
          49.35459392026076
        ]
      }
    },
    {
      "type": "Feature",
      "properties": {
        "norad_id": 35455,
        "name": "COSMOS 2251 DEB",
        "group": "cosmos-2251-debris",
        "lat": -18.21486540618526,
        "lon": 139.86699410263012,
        "alt_km": 784.8256064156367,
        "timestamp": "2025-12-02T06:27:53.407570+00:00",
        "meta_object_name": "COSMOS 2251 DEB",
        "meta_object_id": "1993-036AKZ",
        "meta_epoch": "2025-11-30T05:30:42.694848",
        "meta_mean_motion": 14.49175607,
        "meta_eccentricity": 0.00985891,
        "meta_inclination": 74.0281,
        "meta_ra_of_asc_node": 318.2852,
        "meta_arg_of_pericenter": 65.024,
        "meta_mean_anomaly": 296.1121,
        "meta_ephemeris_type": 0,
        "meta_classification_type": "U",
        "meta_norad_cat_id": 35455,
        "meta_element_set_no": 999,
        "meta_rev_at_epoch": 86362,
        "meta_bstar": 0.0013090162,
        "meta_mean_motion_dot": 5.276e-05,
        "meta_mean_motion_ddot": 0,
        "tle_line1": "1 35455U 93036AKZ 25334.22966082  .00005276  00000+0  13090-2 0  9999",
        "tle_line2": "2 35455  74.0281 318.2852 0098589  65.0240 296.1121 14.49175607863622"
      },
      "geometry": {
        "type": "Point",
        "coordinates": [
          139.86699410263012,
          -18.21486540618526
        ]
      }
    },
    {
      "type": "Feature",
      "properties": {
        "norad_id": 35456,
        "name": "COSMOS 2251 DEB",
        "group": "cosmos-2251-debris",
        "lat": 12.020744043757771,
        "lon": -45.65572343599149,
        "alt_km": 710.6015442156104,
        "timestamp": "2025-12-02T06:27:53.407580+00:00",
        "meta_object_name": "COSMOS 2251 DEB",
        "meta_object_id": "1993-036ALA",
        "meta_epoch": "2025-12-01T03:33:20.272320",
        "meta_mean_motion": 14.6906786,
        "meta_eccentricity": 0.00649292,
        "meta_inclination": 73.9491,
        "meta_ra_of_asc_node": 140.0403,
        "meta_arg_of_pericenter": 352.5373,
        "meta_mean_anomaly": 7.4823,
        "meta_ephemeris_type": 0,
        "meta_classification_type": "U",
        "meta_norad_cat_id": 35456,
        "meta_element_set_no": 999,
        "meta_rev_at_epoch": 65705,
        "meta_bstar": 0.0015385209,
        "meta_mean_motion_dot": 9.308e-05,
        "meta_mean_motion_ddot": 0,
        "tle_line1": "1 35456U 93036ALA 25335.14815130  .00009308  00000+0  15385-2 0  9998",
        "tle_line2": "2 35456  73.9491 140.0403 0064929 352.5373   7.4823 14.69067860657052"
      },
      "geometry": {
        "type": "Point",
        "coordinates": [
          -45.65572343599149,
          12.020744043757771
        ]
      }
    },
    {
      "type": "Feature",
      "properties": {
        "norad_id": 35459,
        "name": "COSMOS 2251 DEB",
        "group": "cosmos-2251-debris",
        "lat": -49.846140910672375,
        "lon": -173.3151468518014,
        "alt_km": 783.7453173078384,
        "timestamp": "2025-12-02T06:27:53.407590+00:00",
        "meta_object_name": "COSMOS 2251 DEB",
        "meta_object_id": "1993-036ALD",
        "meta_epoch": "2025-12-01T08:59:47.161824",
        "meta_mean_motion": 14.37435362,
        "meta_eccentricity": 0.00166894,
        "meta_inclination": 73.8706,
        "meta_ra_of_asc_node": 208.4061,
        "meta_arg_of_pericenter": 159.9873,
        "meta_mean_anomaly": 200.1938,
        "meta_ephemeris_type": 0,
        "meta_classification_type": "U",
        "meta_norad_cat_id": 35459,
        "meta_element_set_no": 999,
        "meta_rev_at_epoch": 58198,
        "meta_bstar": 0.00028227897,
        "meta_mean_motion_dot": 8.18e-06,
        "meta_mean_motion_ddot": 0,
        "tle_line1": "1 35459U 93036ALD 25335.37485141  .00000818  00000+0  28228-3 0  9999",
        "tle_line2": "2 35459  73.8706 208.4061 0016689 159.9873 200.1938 14.37435362581984"
      },
      "geometry": {
        "type": "Point",
        "coordinates": [
          -173.3151468518014,
          -49.846140910672375
        ]
      }
    }
  ]
}